KAITUO 1B               
1 40912U 15049P   18002.22654441  .00001234  00000-0  63310-4 0  9991
2 40912  97.4514  11.9533 0014070 224.5501 196.7187 15.18342302126480
TIANWANG 1C (TW-1C)     
1 40926U 15051B   18002.16404868  .00007086  00000-0  14455-3 0  9994
2 40926  97.2068  45.3878 0011132 154.9731 250.0620 15.46451048127630
TIANWANG 1B (TW-1B)     
1 40927U 15051C   18002.19073817  .00007257  00000-0  15399-3 0  9992
2 40927  97.2154  45.3356 0010959 167.1302 265.2921 15.45285364127563
TIANWANG 1A (TW-1A)     
1 40928U 15051D   18002.12412352  .00003110  00000-0  86001-4 0  9990
2 40928  97.2059  39.3144 0011417 193.4500 244.5628 15.37712100127252
LAPAN-A2 (IO-86)        
1 40931U 15052B   18002.07457176  .00000607  00000-0 -44463-5 0  9998
2 40931   5.9974 254.6259 0012424 179.5927  43.1963 14.76559775122400
LQSAT                   
1 40958U 15057A   18002.07984784  .00000036  00000-0  13286-4 0  9995
2 40958  97.9597  78.7239 0018965 145.4433 214.8040 14.73010003120396
CHUBUSAT-2              
1 41338U 16012B   18002.14543820  .00000359  00000-0  21386-4 0  9998
2 41338  31.0037 288.5214 0014025 229.2358 130.7060 14.99898946102881
CHUBUSAT-3              
1 41339U 16012C   18002.11370813  .00000336  00000-0  19479-4 0  9991
2 41339  31.0098 287.5593 0013845 235.8581 124.0744 15.00091987102864
OUFTI-1                 
1 41458U 16025C   18002.15446286  .00002119  00000-0  11516-3 0  9993
2 41458  98.1595  55.9855 0171083 344.5173  15.0875 15.04116072 92470
E-ST@R-II               
1 41459U 16025D   18002.20057666  .00001720  00000-0  94847-4 0  9996
2 41459  98.1629  55.9365 0171703 345.1449  14.4776 15.03892679 92473
AAUSAT 4                
1 41460U 16025E   18002.05967149  .00002239  00000-0  12120-3 0  9996
2 41460  98.1553  56.0583 0163418 342.7734  16.7986 15.05119570 92493
NUSAT 1 (LO-87)         
1 41557U 16033B   18002.16831208  .00001456  00000-0  56124-4 0  9993
2 41557  97.4495  86.6298 0014657  30.7511 329.4584 15.27881568 88801
BEESAT-4                
1 41619U 16040W   18001.71957534  .00001629  00000-0  75109-4 0  9997
2 41619  97.4385  67.0162 0013419  93.9616 266.3155 15.21625986 72779
PRATHAM                 
1 41783U 16059A   18001.72553335  .00000085  00000-0  26028-4 0  9992
2 41783  98.1422  65.7717 0032385 257.5895 102.1682 14.62891597 67629
ALSAT 1N                
1 41789U 16059G   18002.23252430  .00000090  00000-0  26251-4 0  9991
2 41789  98.1429  67.1630 0026925 249.1316 110.7005 14.64115887 67739
NAYIF-1 (EO-88)         
1 42017U 17008BX  18001.86640825  .00001806  00000-0  77734-4 0  9996
2 42017  97.4713  67.7701 0005163 236.4306 123.6439 15.23906794 48730
LILACSAT-1              
1 42725U 98067ME  18002.16646500  .00017511  00000-0  19918-3 0  9995
2 42725  51.6396 120.1266 0004744 330.1137  93.8534 15.62384116 34519
MAX VALIER SAT          
1 42778U 17036P   18001.94707311  .00001114  00000-0  53408-4 0  9998
2 42778  97.4274  64.2408 0011225 294.6035  65.4031 15.20951640 29235
FOX-1B (AO-91)          
1 43017U 17073E   18001.86871320  .00000604  00000-0  52363-4 0  9991
2 43017  97.6958 300.0759 0262065  92.9756 270.1475 14.77820283  6547
